{
"type": "FeatureCollection",
"name": "cycling_stations",
"crs": { "type": "name", "properties": { "name": "urn:ogc:def:crs:OGC:1.3:CRS84" } },
"features": [
{ "type": "Feature", "properties": { "station_id": "12-PA-SCH", "station_name": "Schwedter Steg", "latitude": 52.549071, "longitude": 13.400366836547899, "installed_at": "2012-03-01T00:00:00", "district_code": "003", "district_name": "Pankow" }, "geometry": { "type": "Point", "coordinates": [ 13.400366836547899, 52.549071 ] } },
{ "type": "Feature", "properties": { "station_id": "02-MI-JAN-N", "station_name": "Jannowitzbrücke Nord", "latitude": 52.513932159398991, "longitude": 13.41783460946187, "installed_at": "2015-04-01T00:00:00", "district_code": "001", "district_name": "Mitte" }, "geometry": { "type": "Point", "coordinates": [ 13.41783460946187, 52.513932159398991 ] } },
{ "type": "Feature", "properties": { "station_id": "02-MI-JAN-S", "station_name": "Jannowitzbrücke Süd", "latitude": 52.513942993846399, "longitude": 13.417611074205, "installed_at": "2015-04-01T00:00:00", "district_code": "001", "district_name": "Mitte" }, "geometry": { "type": "Point", "coordinates": [ 13.417611074205, 52.513942993846399 ] } },
{ "type": "Feature", "properties": { "station_id": "13-CW-PRI", "station_name": "Prinzregentenstraße", "latitude": 52.488135580706334, "longitude": 13.33311990737359, "installed_at": "2015-04-01T00:00:00", "district_code": "004", "district_name": "Charlottenburg-Wilmersdorf" }, "geometry": { "type": "Point", "coordinates": [ 13.33311990737359, 52.488135580706334 ] } },
{ "type": "Feature", "properties": { "station_id": "18-TS-YOR-O", "station_name": "Yorckstraße Ost", "latitude": 52.491937960511301, "longitude": 13.373472267973568, "installed_at": "2015-04-01T00:00:00", "district_code": "007", "district_name": "Tempelhof-Schöneberg" }, "geometry": { "type": "Point", "coordinates": [ 13.373472267973568, 52.491937960511301 ] } },
{ "type": "Feature", "properties": { "station_id": "18-TS-YOR-W", "station_name": "Yorkstraße West", "latitude": 52.49228, "longitude": 13.37321, "installed_at": "2015-04-01T00:00:00", "district_code": "007", "district_name": "Tempelhof-Schöneberg" }, "geometry": { "type": "Point", "coordinates": [ 13.37321, 52.49228 ] } },
{ "type": "Feature", "properties": { "station_id": "19-TS-MON", "station_name": "Monumentenstraße", "latitude": 52.488117, "longitude": 13.369785, "installed_at": "2015-05-01T00:00:00", "district_code": "007", "district_name": "Tempelhof-Schöneberg" }, "geometry": { "type": "Point", "coordinates": [ 13.369785, 52.488117 ] } },
{ "type": "Feature", "properties": { "station_id": "27-RE-MAR", "station_name": "Markstraße", "latitude": 52.55819, "longitude": 13.3649435, "installed_at": "2015-05-01T00:00:00", "district_code": "001", "district_name": "Mitte" }, "geometry": { "type": "Point", "coordinates": [ 13.3649435, 52.55819 ] } },
{ "type": "Feature", "properties": { "station_id": "03-MI-SAN-O", "station_name": "Invalidenstraße Ost", "latitude": 52.527176896192799, "longitude": 13.372015887260501, "installed_at": "2015-06-01T00:00:00", "district_code": "001", "district_name": "Mitte" }, "geometry": { "type": "Point", "coordinates": [ 13.372015887260501, 52.527176896192799 ] } },
{ "type": "Feature", "properties": { "station_id": "03-MI-SAN-W", "station_name": "Invalidenstraße West", "latitude": 52.527686019793798, "longitude": 13.373104864120499, "installed_at": "2015-06-01T00:00:00", "district_code": "001", "district_name": "Mitte" }, "geometry": { "type": "Point", "coordinates": [ 13.373104864120499, 52.527686019793798 ] } },
{ "type": "Feature", "properties": { "station_id": "05-FK-OBB-O", "station_name": "Oberbaumbrücke Ost", "latitude": 52.501198867957598, "longitude": 13.445060485362999, "installed_at": "2015-06-01T00:00:00", "district_code": "002", "district_name": "Friedrichshain-Kreuzberg" }, "geometry": { "type": "Point", "coordinates": [ 13.445060485362999, 52.501198867957598 ] } },
{ "type": "Feature", "properties": { "station_id": "05-FK-OBB-W", "station_name": "Oberbaumbrücke West", "latitude": 52.501275608591399, "longitude": 13.444867366314, "installed_at": "2015-06-01T00:00:00", "district_code": "002", "district_name": "Friedrichshain-Kreuzberg" }, "geometry": { "type": "Point", "coordinates": [ 13.444867366314, 52.501275608591399 ] } },
{ "type": "Feature", "properties": { "station_id": "26-LI-PUP", "station_name": "Paul-und-Paula-Uferweg", "latitude": 52.500323402386101, "longitude": 13.474302291870099, "installed_at": "2015-06-01T00:00:00", "district_code": "011", "district_name": "Lichtenberg" }, "geometry": { "type": "Point", "coordinates": [ 13.474302291870099, 52.500323402386101 ] } },
{ "type": "Feature", "properties": { "station_id": "24-MH-ALB", "station_name": "Alberichstraße", "latitude": 52.492534, "longitude": 13.558493, "installed_at": "2015-07-01T00:00:00", "district_code": "010", "district_name": "Marzahn-Hellersdorf" }, "geometry": { "type": "Point", "coordinates": [ 13.558493, 52.492534 ] } },
{ "type": "Feature", "properties": { "station_id": "10-PA-BER-N", "station_name": "Berliner Straße Nord", "latitude": 52.56692362, "longitude": 13.41248937, "installed_at": "2016-05-01T00:00:00", "district_code": "003", "district_name": "Pankow" }, "geometry": { "type": "Point", "coordinates": [ 13.41248937, 52.56692362 ] } },
{ "type": "Feature", "properties": { "station_id": "10-PA-BER-S", "station_name": "Berliner Straße Süd", "latitude": 52.56681286, "longitude": 13.41216649, "installed_at": "2016-05-01T00:00:00", "district_code": "003", "district_name": "Pankow" }, "geometry": { "type": "Point", "coordinates": [ 13.41216649, 52.56681286 ] } },
{ "type": "Feature", "properties": { "station_id": "15-SP-KLO-S", "station_name": "Klosterstraße Süd", "latitude": 52.533307694787851, "longitude": 13.198487973304143, "installed_at": "2016-05-01T00:00:00", "district_code": "005", "district_name": "Spandau" }, "geometry": { "type": "Point", "coordinates": [ 13.198487973304143, 52.533307694787851 ] } },
{ "type": "Feature", "properties": { "station_id": "15-SP-KLO-N", "station_name": "Klosterstraße Nord", "latitude": 52.533512451165677, "longitude": 13.199052742313857, "installed_at": "2016-06-01T00:00:00", "district_code": "005", "district_name": "Spandau" }, "geometry": { "type": "Point", "coordinates": [ 13.199052742313857, 52.533512451165677 ] } },
{ "type": "Feature", "properties": { "station_id": "17-SK-BRE-O", "station_name": "Breitenbachplatz Ost", "latitude": 52.466760192652302, "longitude": 13.3091647731717, "installed_at": "2016-05-01T00:00:00", "district_code": "006", "district_name": "Steglitz-Zehlendorf" }, "geometry": { "type": "Point", "coordinates": [ 13.3091647731717, 52.466760192652302 ] } },
{ "type": "Feature", "properties": { "station_id": "17-SK-BRE-W", "station_name": "Breitenbachplatz West", "latitude": 52.467215435871999, "longitude": 13.3083600753752, "installed_at": "2016-05-01T00:00:00", "district_code": "006", "district_name": "Steglitz-Zehlendorf" }, "geometry": { "type": "Point", "coordinates": [ 13.3083600753752, 52.467215435871999 ] } },
{ "type": "Feature", "properties": { "station_id": "20-TS-MAR-N", "station_name": "Mariendorfer Damm Nord", "latitude": 52.438535, "longitude": 13.387953, "installed_at": "2016-05-01T00:00:00", "district_code": "007", "district_name": "Tempelhof-Schöneberg" }, "geometry": { "type": "Point", "coordinates": [ 13.387953, 52.438535 ] } },
{ "type": "Feature", "properties": { "station_id": "20-TS-MAR-S", "station_name": "Mariendorfer Damm Süd", "latitude": 52.438072459842502, "longitude": 13.387811779975801, "installed_at": "2016-05-01T00:00:00", "district_code": "007", "district_name": "Tempelhof-Schöneberg" }, "geometry": { "type": "Point", "coordinates": [ 13.387811779975801, 52.438072459842502 ] } },
{ "type": "Feature", "properties": { "station_id": "21-NK-MAY", "station_name": "Maybachufer", "latitude": 52.492998, "longitude": 13.429682, "installed_at": "2016-05-01T00:00:00", "district_code": "008", "district_name": "Neukölln" }, "geometry": { "type": "Point", "coordinates": [ 13.429682, 52.492998 ] } },
{ "type": "Feature", "properties": { "station_id": "23-TK-KAI", "station_name": "Kaisersteg", "latitude": 52.45727, "longitude": 13.5187, "installed_at": "2016-05-01T00:00:00", "district_code": "009", "district_name": "Treptow-Köpenick" }, "geometry": { "type": "Point", "coordinates": [ 13.5187, 52.45727 ] } },
{ "type": "Feature", "properties": { "station_id": "06-FK-FRA-O", "station_name": "Frankfurter Allee Ost", "latitude": 52.513584, "longitude": 13.474242, "installed_at": "2016-06-01T00:00:00", "district_code": "002", "district_name": "Friedrichshain-Kreuzberg" }, "geometry": { "type": "Point", "coordinates": [ 13.474242, 52.513584 ] } },
{ "type": "Feature", "properties": { "station_id": "06-FK-FRA-W", "station_name": "Frankfurter Allee West", "latitude": 52.51379, "longitude": 13.474414, "installed_at": "2016-06-01T00:00:00", "district_code": "002", "district_name": "Friedrichshain-Kreuzberg" }, "geometry": { "type": "Point", "coordinates": [ 13.474414, 52.51379 ] } },
{ "type": "Feature", "properties": { "station_id": "14-CW-JU-W", "station_name": "Straße des 17. Juni West", "latitude": 52.513132589695203, "longitude": 13.326845169067299, "installed_at": "2021-07-27T00:00:00", "district_code": "004", "district_name": "Charlottenburg-Wilmersdorf" }, "geometry": { "type": "Point", "coordinates": [ 13.326845169067299, 52.513132589695203 ] } },
{ "type": "Feature", "properties": { "station_id": "14-CW-JU-O", "station_name": "Straße des 17. Juni Ost", "latitude": 52.51259, "longitude": 13.32663, "installed_at": "2021-07-27T00:00:00", "district_code": "004", "district_name": "Charlottenburg-Wilmersdorf" }, "geometry": { "type": "Point", "coordinates": [ 13.32663, 52.51259 ] } },
{ "type": "Feature", "properties": { "station_id": "01-MI-AL-W", "station_name": "Karl-Marx-Allee", "latitude": 52.521907160501598, "longitude": 13.4175360202789, "installed_at": "2021-12-16T00:00:00", "district_code": "001", "district_name": "Mitte" }, "geometry": { "type": "Point", "coordinates": [ 13.4175360202789, 52.521907160501598 ] } },
{ "type": "Feature", "properties": { "station_id": "11-PA-SE-N", "station_name": "Senefelder Platz Nord", "latitude": 52.531379624542801, "longitude": 13.412354732375301, "installed_at": "2022-10-06T00:00:00", "district_code": "003", "district_name": "Pankow" }, "geometry": { "type": "Point", "coordinates": [ 13.412354732375301, 52.531379624542801 ] } },
{ "type": "Feature", "properties": { "station_id": "04-MI-NO", "station_name": "Nordufer", "latitude": 52.513933, "longitude": 13.417864, "installed_at": "2023-10-16T00:00:00", "district_code": "001", "district_name": "Mitte" }, "geometry": { "type": "Point", "coordinates": [ 13.417864, 52.513933 ] } },
{ "type": "Feature", "properties": { "station_id": "16-SP-NO-O", "station_name": "Nonnendammallee Ost", "latitude": 52.537901, "longitude": 13.247914, "installed_at": "2023-11-22T00:00:00", "district_code": "005", "district_name": "Spandau" }, "geometry": { "type": "Point", "coordinates": [ 13.247914, 52.537901 ] } },
{ "type": "Feature", "properties": { "station_id": "16-SP-NO-W", "station_name": "Nonnendammallee West", "latitude": 52.538414, "longitude": 13.246996, "installed_at": "2023-11-22T00:00:00", "district_code": "005", "district_name": "Spandau" }, "geometry": { "type": "Point", "coordinates": [ 13.246996, 52.538414 ] } },
{ "type": "Feature", "properties": { "station_id": "07-FK-ST", "station_name": "Strausberger Platz", "latitude": 52.518941, "longitude": 13.426139, "installed_at": "2024-04-22T00:00:00", "district_code": "001", "district_name": "Mitte" }, "geometry": { "type": "Point", "coordinates": [ 13.426139, 52.518941 ] } },
{ "type": "Feature", "properties": { "station_id": "09-PA-SA-S", "station_name": "Schönhauser Allee", "latitude": 52.543044, "longitude": 13.412067, "installed_at": "2024-04-22T00:00:00", "district_code": "003", "district_name": "Pankow" }, "geometry": { "type": "Point", "coordinates": [ 13.412067, 52.543044 ] } }
]
}
